STARLINK-1503           
1 45745U 20038R   24324.82236734  .00018204  00000+0  12368-2 0  9994
2 45745  53.0526 208.3778 0001445  84.6982 275.4172 15.06430576244616
STARLINK-1504           
1 45746U 20038S   24324.83012833  .00009752  00000+0  51141-3 0  9999
2 45746  53.0511 200.5885 0003755 103.0574 257.0838 15.16380058244720
STARLINK-1506           
1 45747U 20038T   24325.10617705  .00016168  00000+0  11010-2 0  9999
2 45747  53.0536 207.1062 0001528  95.0913 265.0250 15.06427361244669
STARLINK-1507           
1 45748U 20038U   24325.02978519  .00117053  00000+0  35946-2 0  9993
2 45748  53.0503 183.7317 0011780 108.5934 251.6347 15.32778194244985
STARLINK-1391           
1 45750U 20038W   24325.58335648  .01251748  00000+0  43232-1 0  9994
2 45750  53.0497 184.3118 0001472 108.2125 206.4627 15.26551077  5742
STARLINK-1464           
1 45751U 20038X   24324.85370065  .00005236  00000+0  37009-3 0  9991
2 45751  53.0522 188.2374 0001494  92.1547 267.9613 15.06404990244912
STARLINK-1476           
1 45753U 20038Z   24324.85463366  .00011396  00000+0  53232-3 0  9990
2 45753  53.0542 186.0360 0002037 139.4365 220.6782 15.20268313244943
STARLINK-1477           
1 45754U 20038AA  24325.59827297 -.00000819  00000+0 -36121-4 0  9999
2 45754  53.0513 184.8948 0001753  76.6190 283.4994 15.06383504245028
STARLINK-1478           
1 45755U 20038AB  24325.01954919 -.00000054  00000+0  15274-4 0  9995
2 45755  53.0524 187.4920 0001447  86.0302 274.0852 15.06397657244921
STARLINK-1484           
1 45756U 20038AC  24325.55819633  .00035198  00000+0  15150-2 0  9995
2 45756  53.0398 169.1215 0004504 137.6291 222.5053 15.22305917245234
STARLINK-1486           
1 45757U 20038AD  24325.58335648  .00215587  00000+0  13953-2 0  9999
2 45757  53.0647  88.3528 0005428 264.6809  51.8774 15.74886163  5986
STARLINK-1487           
1 45758U 20038AE  24325.37223756  .00041872  00000+0  86688-3 0  9993
2 45758  53.0333  96.4196 0000526 359.4319   0.6686 15.45380959246243
STARLINK-1493           
1 45759U 20038AF  24325.60562907  .00009381  00000+0  64754-3 0  9993
2 45759  53.0520 184.8658 0001511  84.1827 275.9334 15.06416894245014
STARLINK-1494           
1 45760U 20038AG  24325.60931009  .00005036  00000+0  35665-3 0  9990
2 45760  53.0521 184.8432 0001666  99.4337 260.6840 15.06412414245021
STARLINK-1499           
1 45762U 20038AJ  24325.58335648  .00331415  00000+0  13462-2 0  9999
2 45762  52.9981  58.9418 0005306 337.6702  22.4028 15.84795241  5950
STARLINK-1502           
1 45764U 20038AL  24325.24071458 -.00004593  00000+0 -28976-3 0  9993
2 45764  53.0531 186.5041 0001769  60.4461 299.6704 15.06386555244971
STARLINK-1509           
1 45766U 20038AN  24324.76607814  .01032815  65545-3  99964-3 0  9993
2 45766  53.0266  50.0410 0006604 354.3069 100.2912 16.11085946247760
STARLINK-1511           
1 45767U 20038AP  24325.58335648  .00282571  00000+0  15593-2 0  9999
2 45767  53.0372 119.4550 0003454 183.7772 147.8966 15.78315619  5997
STARLINK-1463           
1 45771U 20038AT  24325.58335648  .01083099  00000+0  35404-1 0  9991
2 45771  53.0494 163.9600 0001391 109.2902 197.0015 15.28318593  5804
STARLINK-1470           
1 45772U 20038AU  24325.54480028  .00001627  00000+0  12805-3 0  9999
2 45772  53.0522 165.1341 0001744  88.0093 272.1095 15.06410503245292
STARLINK-1482           
1 45773U 20038AV  24325.00666832  .00000477  00000+0  50898-4 0  9997
2 45773  53.0524 167.5545 0001645  92.2210 267.8967 15.06396760245214
STARLINK-1485           
1 45774U 20038AW  24325.57429201  .00007200  00000+0  50142-3 0  9999
2 45774  53.0525 165.0060 0001305 100.2893 259.8243 15.06424267245291
STARLINK-1489           
1 45776U 20038AY  24325.50016100  .00101342  00000+0  33065-2 0  9990
2 45776  53.0515 144.1706 0008440 114.4740 245.7141 15.30950775245591
STARLINK-1490           
1 45777U 20038AZ  24324.91667824  .00159783  00000+0  16029-2 0  9993
2 45777  53.0210  83.6607 0003798 250.4937  56.5273 15.64495101  5863
STARLINK-1491           
1 45778U 20038BA  24324.97324418  .00036959  00000+0  10777-2 0  9992
2 45778  53.0482 164.2621 0001284 101.9722 258.1423 15.35032263245246
STARLINK-1492           
1 45779U 20038BB  24325.20940093  .00136956  00000+0  11059-2 0  9995
2 45779  53.0144  46.8457 0003270 329.9751  30.1077 15.69937934246919
STARLINK-1496           
1 45780U 20038BC  24324.97348449  .00001831  00000+0  14180-3 0  9999
2 45780  53.0529 167.6993 0001543 100.0115 260.1048 15.06397166245198
STARLINK-1497           
1 45781U 20038BD  24325.55948023  .00021673  00000+0  12526-2 0  9996
2 45781  53.0510 163.9867 0004185 188.5688 171.5233 15.12242628245302
STARLINK-1498           
1 45782U 20038BE  24325.58335648  .00454944  91805-4  12928-2 0  9998
2 45782  53.0346  38.0236 0004790 332.4663 224.2016 15.92795430  6017
STARLINK-1510           
1 45784U 20038BG  24325.56334561  .00021069  00000+0  10662-2 0  9994
2 45784  53.0539 160.8473 0005430 130.0660 230.0811 15.16983808245355
STARLINK-1512           
1 45785U 20038BH  24325.58335648  .00269878  00000+0  14078-2 0  9991
2 45785  53.0430 118.1666 0003556 211.2814 288.4545 15.79598235  6009
STARLINK-1513           
1 45786U 20038BJ  24325.60009846  .00000156  00000+0  29390-4 0  9990
2 45786  53.0529 164.8896 0001737  95.5658 264.5530 15.06405981245302
STARLINK-1517           
1 45787U 20038BK  24324.81130896  .00001747  00000+0  13614-3 0  9991
2 45787  53.0532 168.4308 0001595  99.9598 260.1571 15.06404950245186
STARLINK-1522           
1 46027U 20055A   24325.38168961  .00002643  00000+0  19620-3 0  9994
2 46027  53.0549  95.8621 0001100 113.8263 246.2842 15.06414325237397
STARLINK-1523           
1 46028U 20055B   24325.39643386 -.00001481  00000+0 -80494-4 0  9994
2 46028  53.0530  95.8036 0001154  76.3017 283.8100 15.06427392237412
STARLINK-1526           
1 46029U 20055C   24324.65926963  .00000644  00000+0  62093-4 0  9991
2 46029  53.0539  99.1125 0001387  93.5075 266.6073 15.06398686237298
STARLINK-1534           
1 46030U 20055D   24325.58335648  .01210099  00000+0  24461-1 0  9992
2 46030  53.0505  92.8733 0001306  70.4455 156.2205 15.43077379  5798
STARLINK-1544           
1 46031U 20055E   24325.58335648  .01189454  00000+0  31400-1 0  9994
2 46031  53.0523  94.2202 0001354  70.1436 163.7435 15.35392022  5799
STARLINK-1555           
1 46032U 20055F   24325.37432168  .00002732  00000+0  20214-3 0  9992
2 46032  53.0520  95.9003 0001368  89.6004 270.5141 15.06412509237402
STARLINK-1556           
1 46033U 20055G   24324.69243203  .00000105  00000+0  25945-4 0  9996
2 46033  53.0541  98.9652 0001370  84.0947 276.0198 15.06398727237270
STARLINK-1557           
1 46034U 20055H   24325.35958012  .00003109  00000+0  22749-3 0  9997
2 46034  53.0542  95.9650 0001332  85.2755 274.8386 15.06404897237377
STARLINK-1558           
1 46035U 20055J   24325.36694991  .00002455  00000+0  18352-3 0  9990
2 46035  53.0545  95.9369 0001529  95.3821 264.7342 15.06421278237408
STARLINK-1560           
1 46036U 20055K   24324.68874577  .00001024  00000+0  87640-4 0  9993
2 46036  53.0555  98.9790 0001398  97.1391 262.9757 15.06394351237307
STARLINK-1565           
1 46037U 20055L   24325.37424251  .00073075  00000+0  35931-2 0  9990
2 46037  53.0499  93.3711 0004743 270.5370  89.5080 15.17374377237432
STARLINK-1567           
1 46038U 20055M   24325.36326250  .00005972  00000+0  41930-3 0  9998
2 46038  53.0546  95.9528 0001138  90.0738 270.0382 15.06413335237391
STARLINK-1569           
1 46039U 20055N   24325.37063798  .00004146  00000+0  29690-3 0  9996
2 46039  53.0538  95.9140 0001098  93.9599 266.1515 15.06420317237397
STARLINK-1580           
1 46041U 20055Q   24324.61501963  .00002556  00000+0  19038-3 0  9994
2 46041  53.0547  99.3966 0001381  93.0467 267.0680 15.06409877237250
STARLINK-1581           
1 46042U 20055R   24325.38537528  .00001426  00000+0  11459-3 0  9990
2 46042  53.0533  95.8501 0001190  83.1472 276.9653 15.06403613237369
STARLINK-1582           
1 46043U 20055S   24324.64819816  .00002333  00000+0  17544-3 0  9991
2 46043  53.0535  99.1599 0001153  97.1009 263.0111 15.06406711237285
STARLINK-1591           
1 46045U 20055U   24324.67399894  .00000075  00000+0  23910-4 0  9991
2 46045  53.0526  99.0420 0001374  79.5615 280.5529 15.06403793237274
STARLINK-1524           
1 46047U 20055W   24325.35682230  .00004195  00000+0  30030-3 0  9995
2 46047  53.0544  85.9746 0001175 121.4473 238.6631 15.06404544237531
STARLINK-1527           
1 46048U 20055X   24325.35311317  .00001972  00000+0  15115-3 0  9998
2 46048  53.0549  85.9920 0001250 117.4468 242.6648 15.06418592237513
STARLINK-1540           
1 46051U 20055AA  24325.31995198  .00005316  00000+0  37540-3 0  9995
2 46051  53.0549  86.1463 0001315  92.7590 267.3550 15.06411330237547
STARLINK-1541           
1 46052U 20055AB  24325.37155411  .00001835  00000+0  14200-3 0  9998
2 46052  53.0536  85.9076 0001671 133.5276 226.5852 15.06422081237515
STARLINK-1543           
1 46053U 20055AC  24325.37522632 -.00029501  00000+0 -19692-2 0  9993
2 46053  53.0530  85.8952 0001756 105.2737 254.8446 15.06410793237547
STARLINK-1548           
1 46054U 20055AD  24324.58646205  .00001361  00000+0  11025-3 0  9994
2 46054  53.0540  89.4399 0001140  81.3229 278.7889 15.06398451237420
STARLINK-1554           
1 46055U 20055AE  24325.36786287  .00004742  00000+0  33685-3 0  9999
2 46055  53.0545  85.9319 0001128  84.7312 275.3805 15.06420939237546
STARLINK-1564           
1 46058U 20055AH  24325.37898023  .00003654  00000+0  26399-3 0  9990
2 46058  53.0534  86.3437 0001419  92.7114 267.4038 15.06414445237539
STARLINK-1570           
1 46059U 20055AJ  24324.67862334  .00002892  00000+0  21302-3 0  9991
2 46059  53.0532  89.0253 0001268  92.2789 267.8345 15.06386559237392
